IRIDIUM 921             
1 24873U 97034E   24333.36892395  .00151565  00000+0  15169-2 0  9993
2 24873  86.3741 205.5954 0004340  51.1658 308.9997 15.65081363500875
IRIDIUM 26              
1 24903U 97043A   24333.43333595  .00001256  00000+0  41896-3 0  9995
2 24903  86.3995 194.8586 0002181  80.6657 279.4787 14.36819269427911
IRIDIUM 22              
1 24907U 97043E   24333.33895188  .00001126  00000+0  38361-3 0  9998
2 24907  86.4000 198.2614 0001997  85.0486 275.0939 14.35668043427952
DUMMY MASS 1            
1 24925U 97048A   24333.45508879  .00001347  00000+0  14860-3 0  9997
2 24925  86.3373 228.0517 0008473 125.2812 234.9207 14.86644734475305
DUMMY MASS 2            
1 24926U 97048B   24333.45126033  .00001330  00000+0  14752-3 0  9998
2 24926  86.3371 229.6241 0008927 135.6640 224.5301 14.86399515475082
IRIDIUM 29              
1 24944U 97051A   24333.49938440  .00001278  00000+0  43242-3 0  9996
2 24944  86.3984 227.9864 0002053  87.8316 272.3116 14.36131305424463
IRIDIUM 33              
1 24946U 97051C   24333.75586360  .00000936  00000+0  32402-3 0  9993
2 24946  86.3901 227.1267 0008808  25.7063 334.4569 14.34666089424010
IRIDIUM 28              
1 24948U 97051E   24333.46408275  .00001248  00000+0  41392-3 0  9996
2 24948  86.3991 225.6320 0002382  73.4066 286.7393 14.37079191425018
